NORAD_CAT_ID,OBJECT_NAME,OBJECT_TYPE,EPOCH,MEAN_MOTION,ECCENTRICITY,INCLINATION,RA_OF_ASC_NODE,ARG_OF_PERICENTER,MEAN_ANOMALY,BSTAR,MEAN_MOTION_DOT,MEAN_MOTION_DDOT,TLE_LINE0,TLE_LINE1,TLE_LINE2,SEMIMAJOR_AXIS,PERIOD,APOGEE,PERIGEE,DECAYED
55649.0,STARLINK-5469,PAYLOAD,2023-04-30 14:20:29,15.69925322,0.000382,69.9992,307.988,272.8667,87.2091,3.9525e-05,4.543e-05,0.0,0 STARLINK-5469,1 55649U 23021X   23120.59755826  .00004543  00000-0  39525-4 0  9996,2 55649  69.9992 307.9880 0003820 272.8667  87.2091 15.69925322 11813,6737.248,91.724,361.686,356.539,0.0
55649.0,STARLINK-5469,PAYLOAD,2023-05-01 13:16:45,15.69924815,0.0003826,69.999,305.3008,268.2905,91.7853,1.6516e-05,1.774e-05,0.0,0 STARLINK-5469,1 55649U 23021X   23121.55330984  .00001774  00000-0  16516-4 0  9995,2 55649  69.9990 305.3008 0003826 268.2905  91.7853 15.69924815 12278,6737.249,91.724,361.692,356.536,0.0
55649.0,STARLINK-5469,PAYLOAD,2023-05-01 14:48:31,15.69927106,0.0003804,69.9991,305.1215,268.7871,91.2889,2.1163e-05,2.333e-05,0.0,0 STARLINK-5469,1 55649U 23021X   23121.61702572  .00002333  00000-0  21163-4 0  9994,2 55649  69.9991 305.1215 0003804 268.7871  91.2889 15.69927106 11976,6737.243,91.724,361.67,356.545,0.0
55649.0,STARLINK-5469,PAYLOAD,2023-05-01 20:55:31,15.699367,0.0003757,69.9989,304.4044,267.2042,92.8724,3.8432e-05,4.413e-05,0.0,0 STARLINK-5469,1 55649U 23021X   23121.87188804  .00004413  00000-0  38432-4 0  9996,2 55649  69.9989 304.4044 0003757 267.2042  92.8724 15.69936700 12321,6737.215,91.723,361.611,356.549,0.0
55649.0,STARLINK-5469,PAYLOAD,2023-05-02 13:44:47,15.6992562,0.0003302,69.9993,302.4309,253.702,106.3812,1.0542e-05,1.055e-05,0.0,0 STARLINK-5469,1 55649U 23021X   23122.57277511  .00001055  00000-0  10542-4 0  9999,2 55649  69.9993 302.4309 0003302 253.7020 106.3812 15.69925620 12430,6737.247,91.724,361.336,356.887,0.0
55649.0,STARLINK-5469,PAYLOAD,2023-05-02 18:20:02,15.69929566,0.0003824,69.999,301.896,266.7384,93.3375,1.1842e-05,1.211e-05,0.0,0 STARLINK-5469,1 55649U 23021X   23122.76392261  .00001211  00000-0  11842-4 0  9998,2 55649  69.9990 301.8960 0003824 266.7384  93.3375 15.69929566 12150,6737.236,91.724,361.677,356.524,0.0
55649.0,STARLINK-5469,PAYLOAD,2023-05-02 21:23:33,15.69928931,0.0003896,69.9991,301.5377,266.2304,93.8446,6.8368e-06,6.09e-06,0.0,0 STARLINK-5469,1 55649U 23021X   23122.89135608  .00000609  00000-0  68368-5 0  9998,2 55649  69.9991 301.5377 0003896 266.2304  93.8446 15.69928931 12481,6737.237,91.724,361.727,356.477,0.0
55649.0,STARLINK-5469,PAYLOAD,2023-05-03 05:02:19,15.69919037,0.0003649,69.9985,300.6429,273.806,86.2718,-1.068e-05,-1.497e-05,0.0,0 STARLINK-5469,1 55649U 23021X   23123.20994601 -.00001497  00000-0 -10680-4 0  9991,2 55649  69.9985 300.6429 0003649 273.8060  86.2718 15.69919037 12228,6737.266,91.724,361.589,356.672,0.0
55649.0,STARLINK-5469,PAYLOAD,2023-05-03 14:12:49,15.69928372,0.0003708,69.9984,299.5669,269.8927,90.1844,7.3064e-06,6.66e-06,0.0,0 STARLINK-5469,1 55649U 23021X   23123.59224233  .00000666  00000-0  73064-5 0  9991,2 55649  69.9984 299.5669 0003708 269.8927  90.1844 15.69928372 12598,6737.239,91.724,361.602,356.606,0.0
55649.0,STARLINK-5469,PAYLOAD,2023-05-03 20:19:50,15.69929207,0.0003717,69.9981,298.849,269.4855,90.5914,9.3778e-06,9.15e-06,0.0,0 STARLINK-5469,1 55649U 23021X   23123.84710759  .00000915  00000-0  93778-5 0  9993,2 55649  69.9981 298.8490 0003717 269.4855  90.5914 15.69929207 12326,6737.237,91.724,361.606,356.597,0.0
55649.0,STARLINK-5469,PAYLOAD,2023-05-04 13:09:06,15.69925445,0.0003512,69.9993,296.8782,275.0504,85.0291,1.9873e-05,2.178e-05,0.0,0 STARLINK-5469,1 55649U 23021X   23124.54799489  .00002178  00000-0  19873-4 0  9994,2 55649  69.9993 296.8782 0003512 275.0504  85.0291 15.69925445 12741,6737.247,91.724,361.478,356.746,0.0
55649.0,STARLINK-5469,PAYLOAD,2023-05-04 20:47:51,15.69936873,0.0003063,69.9994,295.9836,269.3766,90.7079,3.6976e-05,4.238e-05,0.0,0 STARLINK-5469,1 55649U 23021X   23124.86657215  .00004238  00000-0  36976-4 0  9991,2 55649  69.9994 295.9836 0003063 269.3766  90.7079 15.69936873 12484,6737.215,91.723,361.143,357.016,0.0
55649.0,STARLINK-5469,PAYLOAD,2023-05-05 04:26:38,15.69919126,0.000367,69.9988,295.0885,271.644,88.4336,6.4463e-07,-1.35e-06,0.0,0 STARLINK-5469,1 55649U 23021X   23125.18516305 -.00000135  00000-0  64463-6 0  9998,2 55649  69.9988 295.0885 0003670 271.6440  88.4336 15.69919126 12539,6737.265,91.724,361.603,356.658,0.0
55649.0,STARLINK-5469,PAYLOAD,2023-05-05 21:15:54,15.69927536,0.0003215,69.9996,293.1177,261.6707,98.4124,1.1454e-05,1.165e-05,0.0,0 STARLINK-5469,1 55649U 23021X   23125.88604444  .00001165  00000-0  11454-4 0  9990,2 55649  69.9996 293.1177 0003215 261.6707  98.4124 15.69927536 12957,6737.241,91.724,361.272,356.94,0.0
55649.0,STARLINK-5469,PAYLOAD,2023-05-06 14:05:10,15.69935156,0.0003236,69.9993,291.1462,259.049,101.0341,1.708e-05,1.842e-05,0.0,0 STARLINK-5469,1 55649U 23021X   23126.58692393  .00001842  00000-0  17080-4 0  9991,2 55649  69.9993 291.1462 0003236 259.0490 101.0341 15.69935156 13064,6737.22,91.724,361.265,356.904,0.0
55649.0,STARLINK-5469,PAYLOAD,2023-05-07 03:50:57,15.69915089,0.0002992,70.0003,289.5354,289.198,70.8892,-2.1369e-05,-2.78e-05,0.0,0 STARLINK-5469,1 55649U 23021X   23127.16038813 -.00002780  00000-0 -21369-4 0  9996,2 55649  70.0003 289.5354 0002992 289.1980  70.8892 15.69915089 12848,6737.277,91.725,361.158,357.126,0.0
55649.0,STARLINK-5469,PAYLOAD,2023-05-07 13:01:28,15.69908435,0.000295,70.0009,288.4613,274.0288,86.057,1.5827e-06,-2.2e-07,0.0,0 STARLINK-5469,1 55649U 23021X   23127.54269515 -.00000022  00000-0  15827-5 0  9992,2 55649  70.0009 288.4613 0002950 274.0288  86.0570 15.69908435 13219,6737.296,91.725,361.148,357.173,0.0
55649.0,STARLINK-5469,PAYLOAD,2023-05-07 20:40:13,15.69926811,0.0003508,70.002,287.5658,270.8454,89.234,2.8968e-05,3.272e-05,0.0,0 STARLINK-5469,1 55649U 23021X   23127.86126984  .00003272  00000-0  28968-4 0  9997,2 55649  70.0020 287.5658 0003508 270.8454  89.2340 15.69926811 12958,6737.243,91.724,361.472,356.745,0.0
55649.0,STARLINK-5469,PAYLOAD,2023-05-08 04:18:58,15.69942278,0.0003923,70.001,286.669,271.9283,88.1463,6.635e-05,7.779e-05,0.0,0 STARLINK-5469,1 55649U 23021X   23128.17984530  .00007779  00000-0  66350-4 0  9994,2 55649  70.0010 286.6690 0003923 271.9283  88.1463 15.69942278 13002,6737.199,91.723,361.707,356.421,0.0
55649.0,STARLINK-5469,PAYLOAD,2023-05-08 11:57:45,15.69919231,0.0004001,70.0015,285.7766,275.4979,84.576,1.2653e-05,1.308e-05,0.0,0 STARLINK-5469,1 55649U 23021X   23128.49843754  .00001308  00000-0  12653-4 0  9990,2 55649  70.0015 285.7766 0004001 275.4979  84.5760 15.69919231 13058,6737.265,91.724,361.826,356.434,0.0
55649.0,STARLINK-5469,PAYLOAD,2023-05-08 19:36:29,15.69938415,0.0004346,69.9996,284.8768,269.6809,90.3888,4.9574e-05,5.756e-05,0.0,0 STARLINK-5469,1 55649U 23021X   23128.81701215  .00005756  00000-0  49574-4 0  9994,2 55649  69.9996 284.8768 0004346 269.6809  90.3888 15.69938415 13415,6737.21,91.723,362.003,356.147,0.0
55649.0,STARLINK-5469,PAYLOAD,2023-05-09 12:25:46,15.69924294,0.0003752,70.0016,282.9077,270.6962,89.3803,1.9434e-05,2.125e-05,0.0,0 STARLINK-5469,1 55649U 23021X   23129.51790312  .00002125  00000-0  19434-4 0  9997,2 55649  70.0016 282.9077 0003752 270.6962  89.3803 15.69924294 13218,6737.251,91.724,361.643,356.588,0.0
55649.0,STARLINK-5469,PAYLOAD,2023-05-09 13:57:31,15.69923767,0.0003729,70.0015,282.7279,268.9774,91.0994,1.5274e-05,1.624e-05,0.0,0 STARLINK-5469,1 55649U 23021X   23129.58161960  .00001624  00000-0  15274-4 0  9996,2 55649  70.0015 282.7279 0003729 268.9774  91.0994 15.69923767 13534,6737.252,91.724,361.629,356.605,0.0
55649.0,STARLINK-5469,PAYLOAD,2023-05-10 12:53:48,15.69930567,0.0003941,70.0009,280.0406,269.084,90.9905,2.2238e-05,2.463e-05,0.0,0 STARLINK-5469,1 55649U 23021X   23130.53736678  .00002463  00000-0  22238-4 0  9997,2 55649  70.0009 280.0406 0003941 269.0840  90.9905 15.69930567 13684,6737.233,91.724,361.753,356.443,0.0
55649.0,STARLINK-5469,PAYLOAD,2023-05-10 17:29:03,15.69937108,0.0003956,70.0006,279.5029,272.7503,87.324,4.6952e-05,5.44e-05,0.0,0 STARLINK-5469,1 55649U 23021X   23130.72851516  .00005440  00000-0  46952-4 0  9994,2 55649  70.0006 279.5029 0003956 272.7503  87.3240 15.69937108 13408,6737.214,91.723,361.744,356.414,0.0
55649.0,STARLINK-5469,PAYLOAD,2023-05-10 19:00:48,15.69937722,0.0003922,70.0002,279.3237,269.1617,90.9129,5.8601e-05,6.844e-05,0.0,0 STARLINK-5469,1 55649U 23021X   23130.79223068  .00006844  00000-0  58601-4 0  9999,2 55649  70.0002 279.3237 0003922 269.1617  90.9129 15.69937722 13725,6737.212,91.723,361.72,356.435,0.0
55649.0,STARLINK-5469,PAYLOAD,2023-05-11 10:18:20,15.6992129,0.0003564,70.001,277.5352,271.5856,88.4932,1.2974e-05,1.347e-05,0.0,0 STARLINK-5469,1 55649U 23021X   23131.42940559  .00001347  00000-0  12974-4 0  9997,2 55649  70.0010 277.5352 0003564 271.5856  88.4932 15.69921290 13824,6737.259,91.724,361.525,356.723,0.0
55649.0,STARLINK-5469,PAYLOAD,2023-05-11 11:50:05,15.69918295,0.0003934,70.0006,277.3558,260.7033,99.3718,-3.8512e-06,-6.76e-06,0.0,0 STARLINK-5469,1 55649U 23021X   23131.49312129 -.00000676  00000-0 -38512-5 0  9993,2 55649  70.0006 277.3558 0003934 260.7033  99.3718 15.69918295 13524,6737.268,91.725,361.783,356.482,0.0
55649.0,STARLINK-5469,PAYLOAD,2023-05-11 16:25:21,15.69923214,0.0003905,70.0008,276.8198,260.1818,99.8937,1.7297e-05,1.867e-05,0.0,0 STARLINK-5469,1 55649U 23021X   23131.68427187  .00001867  00000-0  17297-4 0  9992,2 55649  70.0008 276.8198 0003905 260.1818  99.8937 15.69923214 13865,6737.254,91.724,361.75,356.488,0.0
55649.0,STARLINK-5469,PAYLOAD,2023-05-12 03:07:36,15.69928159,0.0003976,69.9995,275.5625,267.9943,92.0798,3.871e-05,4.445e-05,0.0,0 STARLINK-5469,1 55649U 23021X   23132.13028902  .00004445  00000-0  38710-4 0  9993,2 55649  69.9995 275.5625 0003976 267.9943  92.0798 15.69928159 13931,6737.24,91.724,361.783,356.426,0.0
